{
  "type": "FeatureCollection",
  "features": [
    {
      "type": "Feature",
      "properties": {
        "norad_id": 26766,
        "name": "INTELSAT 10 (IS-10)",
        "group": "intelsat",
        "lat": -4.531413910047786,
        "lon": -87.56645401253546,
        "alt_km": 36092.88178558215,
        "timestamp": "2025-12-15T04:01:20.110247+00:00",
        "meta_object_name": "INTELSAT 10 (IS-10)",
        "meta_object_id": "2001-019A",
        "meta_epoch": "2025-12-14T01:52:09.627744",
        "meta_mean_motion": 0.99078199,
        "meta_eccentricity": 0.00077381,
        "meta_inclination": 8.633,
        "meta_ra_of_asc_node": 61.1442,
        "meta_arg_of_pericenter": 226.2785,
        "meta_mean_anomaly": 316.6401,
        "meta_ephemeris_type": 0,
        "meta_classification_type": "U",
        "meta_norad_cat_id": 26766,
        "meta_element_set_no": 999,
        "meta_rev_at_epoch": 4374,
        "meta_bstar": 0,
        "meta_mean_motion_dot": -2.62e-06,
        "meta_mean_motion_ddot": 0,
        "tle_line1": "1 26766U 01019A   25348.07788921 -.00000262  00000+0  00000+0 0  9991",
        "tle_line2": "2 26766   8.6330  61.1442 0007738 226.2785 316.6401  0.99078199 43745"
      },
      "geometry": {
        "type": "Point",
        "coordinates": [
          -87.56645401253546,
          -4.531413910047786
        ]
      }
    },
    {
      "type": "Feature",
      "properties": {
        "norad_id": 26900,
        "name": "INTELSAT 902 (IS-902)",
        "group": "intelsat",
        "lat": 1.9744093446233284,
        "lon": 94.19825066874294,
        "alt_km": 35804.149267999805,
        "timestamp": "2025-12-15T04:01:20.110271+00:00",
        "meta_object_name": "INTELSAT 902 (IS-902)",
        "meta_object_id": "2001-039A",
        "meta_epoch": "2025-12-11T04:42:42.842016",
        "meta_mean_motion": 1.00272526,
        "meta_eccentricity": 0.00044264,
        "meta_inclination": 5.6424,
        "meta_ra_of_asc_node": 74.0881,
        "meta_arg_of_pericenter": 184.9809,
        "meta_mean_anomaly": 201.6699,
        "meta_ephemeris_type": 0,
        "meta_classification_type": "U",
        "meta_norad_cat_id": 26900,
        "meta_element_set_no": 999,
        "meta_rev_at_epoch": 8881,
        "meta_bstar": 0,
        "meta_mean_motion_dot": -2.78e-06,
        "meta_mean_motion_ddot": 0,
        "tle_line1": "1 26900U 01039A   25345.19632919 -.00000278  00000+0  00000+0 0  9995",
        "tle_line2": "2 26900   5.6424  74.0881 0004426 184.9809 201.6699  1.00272526 88816"
      },
      "geometry": {
        "type": "Point",
        "coordinates": [
          94.19825066874294,
          1.9744093446233284
        ]
      }
    },
    {
      "type": "Feature",
      "properties": {
        "norad_id": 27380,
        "name": "INTELSAT 904 (IS-904)",
        "group": "intelsat",
        "lat": 4.294221852338498,
        "lon": 112.7280204319659,
        "alt_km": 35791.79481547396,
        "timestamp": "2025-12-15T04:01:20.110288+00:00",
        "meta_object_name": "INTELSAT 904 (IS-904)",
        "meta_object_id": "2002-007A",
        "meta_epoch": "2025-12-14T02:59:42.362304",
        "meta_mean_motion": 1.00272528,
        "meta_eccentricity": 0.0001552,
        "meta_inclination": 6.4582,
        "meta_ra_of_asc_node": 71.4168,
        "meta_arg_of_pericenter": 234.0895,
        "meta_mean_anomaly": 150.9662,
        "meta_ephemeris_type": 0,
        "meta_classification_type": "U",
        "meta_norad_cat_id": 27380,
        "meta_element_set_no": 999,
        "meta_rev_at_epoch": 4991,
        "meta_bstar": 0,
        "meta_mean_motion_dot": -2.11e-06,
        "meta_mean_motion_ddot": 0,
        "tle_line1": "1 27380U 02007A   25348.12479586 -.00000211  00000+0  00000+0 0  9996",
        "tle_line2": "2 27380   6.4582  71.4168 0001552 234.0895 150.9662  1.00272528 49917"
      },
      "geometry": {
        "type": "Point",
        "coordinates": [
          112.7280204319659,
          4.294221852338498
        ]
      }
    },
    {
      "type": "Feature",
      "properties": {
        "norad_id": 27426,
        "name": "DIRECTV 5 (TEMPO 1)",
        "group": "intelsat",
        "lat": -3.0050054212290624,
        "lon": 34.40175317136866,
        "alt_km": 35793.11185614938,
        "timestamp": "2025-12-15T04:01:20.110301+00:00",
        "meta_object_name": "DIRECTV 5 (TEMPO 1)",
        "meta_object_id": "2002-023A",
        "meta_epoch": "2025-12-14T04:20:04.664256",
        "meta_mean_motion": 1.00272314,
        "meta_eccentricity": 0.00034329,
        "meta_inclination": 4.4059,
        "meta_ra_of_asc_node": 77.6366,
        "meta_arg_of_pericenter": 198.9031,
        "meta_mean_anomaly": 121.459,
        "meta_ephemeris_type": 0,
        "meta_classification_type": "U",
        "meta_norad_cat_id": 27426,
        "meta_element_set_no": 999,
        "meta_rev_at_epoch": 8626,
        "meta_bstar": 0,
        "meta_mean_motion_dot": -4.1e-07,
        "meta_mean_motion_ddot": 0,
        "tle_line1": "1 27426U 02023A   25348.18060954 -.00000041  00000+0  00000+0 0  9997",
        "tle_line2": "2 27426   4.4059  77.6366 0003432 198.9031 121.4590  1.00272314 86267"
      },
      "geometry": {
        "type": "Point",
        "coordinates": [
          34.40175317136866,
          -3.0050054212290624
        ]
      }
    },
    {
      "type": "Feature",
      "properties": {
        "norad_id": 27438,
        "name": "INTELSAT 905 (IS-905)",
        "group": "intelsat",
        "lat": -5.68240441615733,
        "lon": 7.393273380310617,
        "alt_km": 35786.68131740387,
        "timestamp": "2025-12-15T04:01:20.110315+00:00",
        "meta_object_name": "INTELSAT 905 (IS-905)",
        "meta_object_id": "2002-027A",
        "meta_epoch": "2025-12-14T04:33:38.635200",
        "meta_mean_motion": 1.00274201,
        "meta_eccentricity": 0.00026501,
        "meta_inclination": 6.2894,
        "meta_ra_of_asc_node": 72.0398,
        "meta_arg_of_pericenter": 202.1249,
        "meta_mean_anomaly": 100.1717,
        "meta_ephemeris_type": 0,
        "meta_classification_type": "U",
        "meta_norad_cat_id": 27438,
        "meta_element_set_no": 999,
        "meta_rev_at_epoch": 4950,
        "meta_bstar": 0,
        "meta_mean_motion_dot": 1.08e-06,
        "meta_mean_motion_ddot": 0,
        "tle_line1": "1 27438U 02027A   25348.19003050  .00000108  00000+0  00000+0 0  9992",
        "tle_line2": "2 27438   6.2894  72.0398 0002650 202.1249 100.1717  1.00274201 49509"
      },
      "geometry": {
        "type": "Point",
        "coordinates": [
          7.393273380310617,
          -5.68240441615733
        ]
      }
    },
    {
      "type": "Feature",
      "properties": {
        "norad_id": 27445,
        "name": "GALAXY 3C (G-3C)",
        "group": "intelsat",
        "lat": -1.6605818913713473,
        "lon": 49.566401841198164,
        "alt_km": 35788.27305686583,
        "timestamp": "2025-12-15T04:01:20.110335+00:00",
        "meta_object_name": "GALAXY 3C (G-3C)",
        "meta_object_id": "2002-030A",
        "meta_epoch": "2025-12-14T06:07:09.408000",
        "meta_mean_motion": 1.00271596,
        "meta_eccentricity": 0.0001078,
        "meta_inclination": 3.2681,
        "meta_ra_of_asc_node": 80.4909,
        "meta_arg_of_pericenter": 83.646,
        "meta_mean_anomaly": 275.9634,
        "meta_ephemeris_type": 0,
        "meta_classification_type": "U",
        "meta_norad_cat_id": 27445,
        "meta_element_set_no": 999,
        "meta_rev_at_epoch": 4463,
        "meta_bstar": 0,
        "meta_mean_motion_dot": -1.36e-06,
        "meta_mean_motion_ddot": 0,
        "tle_line1": "1 27445U 02030A   25348.25497000 -.00000136  00000+0  00000+0 0  9995",
        "tle_line2": "2 27445   3.2681  80.4909 0001078  83.6460 275.9634  1.00271596 44631"
      },
      "geometry": {
        "type": "Point",
        "coordinates": [
          49.566401841198164,
          -1.6605818913713473
        ]
      }
    },
    {
      "type": "Feature",
      "properties": {
        "norad_id": 27513,
        "name": "INTELSAT 906 (IS-906)",
        "group": "intelsat",
        "lat": 3.867234846656169,
        "lon": -151.40466398180158,
        "alt_km": 35772.5834130969,
        "timestamp": "2025-12-15T04:01:20.110363+00:00",
        "meta_object_name": "INTELSAT 906 (IS-906)",
        "meta_object_id": "2002-041A",
        "meta_epoch": "2025-12-14T05:09:52.396128",
        "meta_mean_motion": 1.00271762,
        "meta_eccentricity": 0.00062234,
        "meta_inclination": 5.3328,
        "meta_ra_of_asc_node": 75.2135,
        "meta_arg_of_pericenter": 193.9246,
        "meta_mean_anomaly": 315.5931,
        "meta_ephemeris_type": 0,
        "meta_classification_type": "U",
        "meta_norad_cat_id": 27513,
        "meta_element_set_no": 999,
        "meta_rev_at_epoch": 8517,
        "meta_bstar": 0,
        "meta_mean_motion_dot": 2.8e-07,
        "meta_mean_motion_ddot": 0,
        "tle_line1": "1 27513U 02041A   25348.21518977  .00000028  00000+0  00000+0 0  9995",
        "tle_line2": "2 27513   5.3328  75.2135 0006223 193.9246 315.5931  1.00271762 85175"
      },
      "geometry": {
        "type": "Point",
        "coordinates": [
          -151.40466398180158,
          3.867234846656169
        ]
      }
    }
  ]
}